STARLINK-3823           
1 52336U 22045F   22144.91667824 -.00708450  00000+0 -95127-2 0  9999
2 52336  53.2173 312.8332 0001097  76.2858  19.2786 15.59650092  1306
STARLINK-3797           
1 52337U 22045G   22144.91667824 -.00708517  00000+0 -95200-2 0  9996
2 52337  53.2173 312.7987 0001291  51.7672  40.8397 15.59631373  6483
STARLINK-3815           
1 52338U 22045H   22144.91667824 -.00708447  00000+0 -95076-2 0  9990
2 52338  53.2173 312.8544 0001090  78.8265  18.9558 15.59663990  1300
STARLINK-3792           
1 52339U 22045J   22144.91667824 -.00708425  00000+0 -95087-2 0  9999
2 52339  53.2173 312.8476 0001196  62.4929  34.5501 15.59659314  6489
STARLINK-3818           
1 52340U 22045K   22144.91667824  .00086867  00000+0  61844-3 0  9993
2 52340  53.2143 312.3999 0000992  61.9332 253.8700 15.73144282  6473
STARLINK-3843           
1 52341U 22045L   22144.91667824 -.00708481  00000+0 -95115-2 0  9996
2 52341  53.2173 312.8404 0001079  91.2690   5.0346 15.59654754  6481
STARLINK-3850           
1 52342U 22045M   22144.91667824  .00024929  00000+0  18179-3 0  9999
2 52342  53.2143 312.3971 0001134  59.6516 257.2785 15.73163773  6480
STARLINK-3849           
1 52343U 22045N   22144.91667824 -.00708470  00000+0 -95057-2 0  9991
2 52343  53.2174 312.9153 0001158  67.6283  30.8917 15.59669603  6488
STARLINK-3851           
1 52344U 22045P   22144.91667824  .00116412  00000+0  82659-3 0  9994
2 52344  53.2143 312.3943 0000962  58.5086 259.9258 15.73081366  1306
STARLINK-3852           
1 52345U 22045Q   22144.91667824  .00037951  00000+0  27387-3 0  9992
2 52345  53.2145 312.4011 0001011  47.0886 268.1513 15.73176625  6475
STARLINK-3812           
1 52346U 22045R   22144.91667824  .00038425  00000+0  27697-3 0  9994
2 52346  53.2141 312.3937 0001452  55.7919 263.0266 15.73197538  6486
STARLINK-3826           
1 52347U 22045S   22144.91667824  .00098190  00000+0  69741-3 0  9996
2 52347  53.2143 312.3992 0001109  58.8837 257.4750 15.73148626  6481
STARLINK-3829           
1 52348U 22045T   22144.91667824  .00007499  00000+0  57903-4 0  9997
2 52348  53.2141 312.3905 0001088  54.5118 265.5443 15.73157686  6480
STARLINK-3819           
1 52349U 22045U   22144.91667824  .00009752  00000+0  73743-4 0  9992
2 52349  53.2135 312.3950 0001299  72.3316 245.3011 15.73223606  6489
STARLINK-3754           
1 52350U 22045V   22144.91667824  .00023626  00000+0  17219-3 0  9995
2 52350  53.2141 312.3899 0001417  66.8726 253.7448 15.73211827  6484
STARLINK-3816           
1 52351U 22045W   22144.91667824  .00034332  00000+0  24824-3 0  9992
2 52351  53.2141 312.3928 0001381  47.1908 272.2002 15.73180065  1309
STARLINK-3838           
1 52352U 22045X   22144.91667824  .00046032  00000+0  33068-3 0  9993
2 52352  53.2139 312.3853 0001756  41.5489 280.8548 15.73193761  1309
STARLINK-3807           
1 52353U 22045Y   22144.91667824  .00055615  00000+0  39814-3 0  9996
2 52353  53.2141 312.3882 0001423  59.9799 261.2397 15.73195014  6485
STARLINK-3876           
1 52354U 22045Z   22144.91667824  .00079887  00000+0  56859-3 0  9992
2 52354  53.2138 312.3804 0001318  53.7964 270.9695 15.73184640  6486
STARLINK-3877           
1 52355U 22045AA  22144.91667824 -.00021208  00000+0 -14696-3 0  9992
2 52355  53.2141 312.3870 0001235  50.9809 270.7512 15.73217664  6488
STARLINK-3801           
1 52356U 22045AB  22144.91667824  .00078272  00000+0  55838-3 0  9997
2 52356  53.2138 312.3828 0001122  65.9342 257.6389 15.73138929  1309
STARLINK-3821           
1 52357U 22045AC  22144.91667824  .00119974  00000+0  84873-3 0  9994
2 52357  53.2139 312.3844 0001079  52.0265 270.9536 15.73154692  6482
STARLINK-3837           
1 52358U 22045AD  22144.91667824  .00066169  00000+0  47267-3 0  9998
2 52358  53.2136 312.3766 0001117  60.4918 266.0515 15.73174999  6489
STARLINK-3853           
1 52359U 22045AE  22144.91667824  .00020216  00000+0  14805-3 0  9994
2 52359  53.2140 312.3819 0001228  59.1249 265.0208 15.73209051  6485
STARLINK-3824           
1 52360U 22045AF  22144.91667824  .00000855  00000+0  10501-4 0  9993
2 52360  53.2135 312.3739 0001299  60.5539 267.2068 15.73212838  6472
STARLINK-3728           
1 52361U 22045AG  22144.91667824  .00054337  00000+0  39007-3 0  9999
2 52361  53.2138 312.3792 0001076  58.0799 267.3013 15.73139773  1302
STARLINK-3848           
1 52362U 22045AH  22144.91667824  .00105003  00000+0  74418-3 0  9992
2 52362  53.2136 312.3727 0000850  57.6737 270.6529 15.73171002  6489
STARLINK-3830           
1 52363U 22045AJ  22144.91667824 -.00000184  00000+0  31056-5 0  9991
2 52363  53.2138 312.3779 0001078  59.0857 266.8719 15.73197965  6485
STARLINK-3820           
1 52364U 22045AK  22144.91667824  .00042373  00000+0  30545-3 0  9997
2 52364  53.2136 312.3702 0001363  64.4962 265.0035 15.73150037  6485
STARLINK-3874           
1 52365U 22045AL  22144.91667824  .00067652  00000+0  48304-3 0  9997
2 52365  53.2137 312.3756 0001288  65.3505 261.7648 15.73176942  6481
STARLINK-3808           
1 52366U 22045AM  22144.91667824  .00024216  00000+0  17637-3 0  9992
2 52366  53.2135 312.3673 0001226  63.6764 267.0487 15.73211370  6483
STARLINK-3817           
1 52367U 22045AN  22144.91667824  .00062431  00000+0  44601-3 0  9995
2 52367  53.2136 312.3718 0001183  60.5689 268.3817 15.73196357  6487
STARLINK-3834           
1 52368U 22045AP  22144.91667824  .00032288  00000+0  23357-3 0  9998
2 52368  53.2133 312.3638 0001069  67.1445 265.3774 15.73201379  6471
STARLINK-3841           
1 52369U 22045AQ  22144.91667824  .00111783  00000+0  79156-3 0  9995
2 52369  53.2135 312.3692 0001186  65.0346 265.1474 15.73163385  6481
STARLINK-3827           
1 52370U 22045AR  22144.91667824  .00034141  00000+0  24660-3 0  9999
2 52370  53.2133 312.3661 0001022  48.2506 283.0438 15.73208142  6487
STARLINK-3798           
1 52371U 22045AS  22144.91667824  .00056154  00000+0  40290-3 0  9995
2 52371  53.2134 312.3652 0001146  60.1395 271.7874 15.73138486  1302
STARLINK-3796           
1 52372U 22045AT  22144.91667824  .00019006  00000+0  13951-3 0  9995
2 52372  53.2132 312.3606 0001313  60.3790 273.3587 15.73202808  6479
STARLINK-3550           
1 52373U 22045AU  22144.91667824  .00049292  00000+0  35459-3 0  9993
2 52373  53.2131 312.3590 0001076  47.8228 287.2728 15.73132228  6483
STARLINK-3762           
1 52374U 22045AV  22144.91667824  .00057775  00000+0  41538-3 0  9994
2 52374  53.2141 312.3588 0001095  52.0308 282.5176 15.73079032  6488
STARLINK-3785           
1 52375U 22045AW  22144.91667824  .00001100  00000+0  12246-4 0  9991
2 52375  53.2134 312.3623 0001246  58.1067 275.0007 15.73222725  6487
STARLINK-3767           
1 52376U 22045AX  22144.91667824  .00005990  00000+0  47071-4 0  9997
2 52376  53.2138 312.3557 0001242  63.7115 272.3576 15.73196986  6480
STARLINK-3805           
1 52377U 22045AY  22144.91667824  .00035253  00000+0  25477-3 0  9998
2 52377  53.2131 312.3576 0001122  50.6685 284.8412 15.73178720  1308
STARLINK-3806           
1 52378U 22045AZ  22144.91667824  .00060393  00000+0  43226-3 0  9994
2 52378  53.2132 312.3537 0001088  55.1463 282.1135 15.73166059  1307
STARLINK-3800           
1 52379U 22045BA  22144.91667824  .00296214  00000+0  20553-2 0  9995
2 52379  53.2131 312.3560 0000935  70.9215 265.2708 15.73040471  1300
STARLINK-3793           
1 52380U 22045BB  22144.91667824  .00097259  00000+0  69070-3 0  9993
2 52380  53.2133 312.3502 0000949  95.6676 243.4000 15.73155976  1300
STARLINK-3803           
1 52381U 22045BC  22144.91667824  .00122607  00000+0  86777-3 0  9993
2 52381  53.2138 312.3523 0001742  48.6982 289.1698 15.73132885  6487
STARLINK-3799           
1 52382U 22045BD  22144.91667824  .00100781  00000+0  71579-3 0  9997
2 52382  53.2132 312.3509 0001013  58.3581 280.1289 15.73138242  6480
STARLINK-3811           
1 52383U 22045BE  22144.91667824  .00056458  00000+0  40479-3 0  9994
2 52383  53.2138 312.3487 0001580  46.6540 292.9928 15.73153036  6485
JILIN-01 GAOFEN 4A      
1 52388U 22046A   22144.87438032  .00007825  00000+0  49084-3 0  9997
2 52388  97.5404 232.5806 0013247 195.3071 301.6662 15.09515111  3732
JILIN-01 GAOFEN 3D 4    
1 52389U 22046B   22144.86504491  .00007865  00000+0  48879-3 0  9995
2 52389  97.5406 232.5816 0012591 202.5394 267.7454 15.09862803  3729
JILIN-01 GAOFEN 3D 5    
1 52390U 22046C   22144.92647500 -.00005467  00000+0 -33125-3 0  9999
2 52390  97.5351 232.6242 0013495 203.8386 245.5873 15.10121670  3735
JILIN-01 GAOFEN 3D 6    
1 52391U 22046D   22144.73053943  .00030247  00000+0  18397-2 0  9996
2 52391  97.5449 232.4745 0014308 205.7758 273.1506 15.10298310  3701
JILIN-01 GAOFEN 3D 7    
1 52392U 22046E   22144.86159233  .00008117  00000+0  49958-3 0  9999
2 52392  97.5397 232.5855 0014669 204.4999 275.2147 15.10179506  3721
SPACEBEE-143            
1 52394U 22047A   22144.47662631  .00010216  00000+0  58045-3 0  9990
2 52394  97.4492 229.9152 0007775 253.3754 106.6624 15.13068270  4726
SPACEBEENZ-15           
1 52395U 22047B   22144.20983197  .00013355  00000+0  75245-3 0  9993
2 52395  97.4489 229.6595 0008155 251.0985 108.9362 15.13299059  4685
SPACEBEENZ-16           
1 52396U 22047C   22144.47434601  .00014050  00000+0  79127-3 0  9990
2 52396  97.4488 229.9180 0008185 250.8050 109.2296 15.13304843  4724
SPACEBEENZ-17           
1 52397U 22047D   22144.47441503  .00013655  00000+0  76929-3 0  9997
2 52397  97.4487 229.9177 0008177 249.8799 110.1553 15.13297423  4721
SPACEBEENZ-18           
1 52398U 22047E   22144.73900518  .00013278  00000+0  74825-3 0  9997
2 52398  97.4490 230.1761 0008179 250.0869 109.9482 15.13295157  4766
SPACEBEE-140            
1 52399U 22047F   22144.47499249  .00011336  00000+0  64093-3 0  9992
2 52399  97.4491 229.9170 0007972 251.3870 108.6496 15.13217324  4743
